[{"OBJECT_NAME":"ONEWEB-0721","OBJECT_ID":"2023-068R","EPOCH":"2026-03-09T15:32:52.865376","MEAN_MOTION":13.22461847,"ECCENTRICITY":0.00019199,"INCLINATION":86.676,"RA_OF_ASC_NODE":117.3008,"ARG_OF_PERICENTER":100.0966,"MEAN_ANOMALY":260.0384,"EPHEMERIS_TYPE":0,"CLASSIFICATION_TYPE":"U","NORAD_CAT_ID":56725,"ELEMENT_SET_NO":999,"REV_AT_EPOCH":14478,"BSTAR":-0.00017098121,"MEAN_MOTION_DOT":-5.7e-7,"MEAN_MOTION_DDOT":0},{"OBJECT_NAME":"DELTA 1 DEB","OBJECT_ID":"1973-086EV","EPOCH":"2026-03-09T19:57:25.227072","MEAN_MOTION":13.05011749,"ECCENTRICITY":0.01904682,"INCLINATION":102.2937,"RA_OF_ASC_NODE":36.9398,"ARG_OF_PERICENTER":43.3387,"MEAN_ANOMALY":19.0093,"EPHEMERIS_TYPE":0,"CLASSIFICATION_TYPE":"U","NORAD_CAT_ID":7184,"ELEMENT_SET_NO":999,"REV_AT_EPOCH":47037,"BSTAR":0.0044264043,"MEAN_MOTION_DOT":1.507e-5,"MEAN_MOTION_DDOT":0}]
